[{"OBJECT_NAME":"JILIN-1","OBJECT_ID":"2015-057D","EPOCH":"2026-03-04T03:36:35.456832","MEAN_MOTION":14.77981645,"ECCENTRICITY":0.0015617,"INCLINATION":97.6514,"RA_OF_ASC_NODE":67.7473,"ARG_OF_PERICENTER":243.2545,"MEAN_ANOMALY":116.7069,"EPHEMERIS_TYPE":0,"CLASSIFICATION_TYPE":"U","NORAD_CAT_ID":40961,"ELEMENT_SET_NO":999,"REV_AT_EPOCH":56009,"BSTAR":0.00016588,"MEAN_MOTION_DOT":1.15e-5,"MEAN_MOTION_DDOT":0},{"OBJECT_NAME":"FOX-1A (AO-85)","OBJECT_ID":"2015-058D","EPOCH":"2026-03-04T00:32:50.847072","MEAN_MOTION":14.90296117,"ECCENTRICITY":0.012918,"INCLINATION":64.7735,"RA_OF_ASC_NODE":245.6353,"ARG_OF_PERICENTER":98.1982,"MEAN_ANOMALY":263.3804,"EPHEMERIS_TYPE":0,"CLASSIFICATION_TYPE":"U","NORAD_CAT_ID":40967,"ELEMENT_SET_NO":999,"REV_AT_EPOCH":9789,"BSTAR":0.00051138,"MEAN_MOTION_DOT":5.669e-5,"MEAN_MOTION_DDOT":0},{"OBJECT_NAME":"SINOD-D 1","OBJECT_ID":"2015-058E","EPOCH":"2026-03-03T21:17:15.923904","MEAN_MOTION":14.94968554,"ECCENTRICITY":0.011753,"INCLINATION":64.7742,"RA_OF_ASC_NODE":228.4401,"ARG_OF_PERICENTER":95.6175,"MEAN_ANOMALY":265.8355,"EPHEMERIS_TYPE":0,"CLASSIFICATION_TYPE":"U","NORAD_CAT_ID":40968,"ELEMENT_SET_NO":999,"REV_AT_EPOCH":10091,"BSTAR":0.00066247,"MEAN_MOTION_DOT":8.169e-5,"MEAN_MOTION_DDOT":0},{"OBJECT_NAME":"ELEKTRO-L 2","OBJECT_ID":"2015-074A","EPOCH":"2026-03-03T20:51:04.605984","MEAN_MOTION":1.00270829,"ECCENTRICITY":0.00034679,"INCLINATION":6.4296,"RA_OF_ASC_NODE":71.8188,"ARG_OF_PERICENTER":237.1165,"MEAN_ANOMALY":150.951,"EPHEMERIS_TYPE":0,"CLASSIFICATION_TYPE":"U","NORAD_CAT_ID":41105,"ELEMENT_SET_NO":999,"REV_AT_EPOCH":3745,"BSTAR":0,"MEAN_MOTION_DOT":-1.28e-6,"MEAN_MOTION_DDOT":0},{"OBJECT_NAME":"DAMPE","OBJECT_ID":"2015-078A","EPOCH":"2026-03-04T04:15:49.031712","MEAN_MOTION":15.30476679,"ECCENTRICITY":0.00139,"INCLINATION":97.4575,"RA_OF_ASC_NODE":68.1411,"ARG_OF_PERICENTER":88.6638,"MEAN_ANOMALY":271.6195,"EPHEMERIS_TYPE":0,"CLASSIFICATION_TYPE":"U","NORAD_CAT_ID":41173,"ELEMENT_SET_NO":999,"REV_AT_EPOCH":56848,"BSTAR":9.8003e-5,"MEAN_MOTION_DOT":2.817e-5,"MEAN_MOTION_DDOT":0},{"OBJECT_NAME":"ORBCOMM FM114","OBJECT_ID":"2015-081A","EPOCH":"2026-03-03T13:44:29.076864","MEAN_MOTION":14.58718203,"ECCENTRICITY":0.0001266,"INCLINATION":47.0042,"RA_OF_ASC_NODE":141.288,"ARG_OF_PERICENTER":74.5268,"MEAN_ANOMALY":285.5758,"EPHEMERIS_TYPE":0,"CLASSIFICATION_TYPE":"U","NORAD_CAT_ID":41179,"ELEMENT_SET_NO":999,"REV_AT_EPOCH":54233,"BSTAR":0.00020306,"MEAN_MOTION_DOT":7.86e-6,"MEAN_MOTION_DDOT":0},{"OBJECT_NAME":"ORBCOMM FM110","OBJECT_ID":"2015-081D","EPOCH":"2026-03-03T13:28:58.114272","MEAN_MOTION":14.58720495,"ECCENTRICITY":0.0003548,"INCLINATION":47.0014,"RA_OF_ASC_NODE":140.8129,"ARG_OF_PERICENTER":295.0481,"MEAN_ANOMALY":65.0036,"EPHEMERIS_TYPE":0,"CLASSIFICATION_TYPE":"U","NORAD_CAT_ID":41182,"ELEMENT_SET_NO":999,"REV_AT_EPOCH":54220,"BSTAR":0.00030825,"MEAN_MOTION_DOT":1.282e-5,"MEAN_MOTION_DDOT":0},{"OBJECT_NAME":"ORBCOMM FM112","OBJECT_ID":"2015-081F","EPOCH":"2026-03-04T00:14:48.712128","MEAN_MOTION":14.58718421,"ECCENTRICITY":9.94e-5,"INCLINATION":46.9996,"RA_OF_ASC_NODE":47.508,"ARG_OF_PERICENTER":53.6338,"MEAN_ANOMALY":306.4639,"EPHEMERIS_TYPE":0,"CLASSIFICATION_TYPE":"U","NORAD_CAT_ID":41184,"ELEMENT_SET_NO":999,"REV_AT_EPOCH":54359,"BSTAR":0.00025689,"MEAN_MOTION_DOT":1.04e-5,"MEAN_MOTION_DDOT":0},{"OBJECT_NAME":"ORBCOMM FM113","OBJECT_ID":"2015-081G","EPOCH":"2026-03-04T01:20:37.865184","MEAN_MOTION":14.58719604,"ECCENTRICITY":5.77e-5,"INCLINATION":47.0013,"RA_OF_ASC_NODE":47.6591,"ARG_OF_PERICENTER":63.2334,"MEAN_ANOMALY":296.8611,"EPHEMERIS_TYPE":0,"CLASSIFICATION_TYPE":"U","NORAD_CAT_ID":41185,"ELEMENT_SET_NO":999,"REV_AT_EPOCH":54358,"BSTAR":0.00024842,"MEAN_MOTION_DOT":1.0e-5,"MEAN_MOTION_DDOT":0},{"OBJECT_NAME":"ORBCOMM FM108","OBJECT_ID":"2015-081J","EPOCH":"2026-03-03T16:13:42.044448","MEAN_MOTION":14.58730739,"ECCENTRICITY":0.00022009,"INCLINATION":47.0059,"RA_OF_ASC_NODE":320.9947,"ARG_OF_PERICENTER":59.3085,"MEAN_ANOMALY":300.8017,"EPHEMERIS_TYPE":0,"CLASSIFICATION_TYPE":"U","NORAD_CAT_ID":41187,"ELEMENT_SET_NO":999,"REV_AT_EPOCH":54467,"BSTAR":0.00031189535,"MEAN_MOTION_DOT":1.299e-5,"MEAN_MOTION_DDOT":0},{"OBJECT_NAME":"ORBCOMM FM117","OBJECT_ID":"2015-081K","EPOCH":"2026-03-04T01:15:49.996800","MEAN_MOTION":14.58723735,"ECCENTRICITY":0.0002525,"INCLINATION":47.0022,"RA_OF_ASC_NODE":317.8837,"ARG_OF_PERICENTER":72.5276,"MEAN_ANOMALY":287.5886,"EPHEMERIS_TYPE":0,"CLASSIFICATION_TYPE":"U","NORAD_CAT_ID":41188,"ELEMENT_SET_NO":999,"REV_AT_EPOCH":54477,"BSTAR":0.00030902,"MEAN_MOTION_DOT":1.285e-5,"MEAN_MOTION_DDOT":0},{"OBJECT_NAME":"ORBCOMM FM116","OBJECT_ID":"2015-081L","EPOCH":"2026-03-04T00:48:09.304992","MEAN_MOTION":14.58713856,"ECCENTRICITY":0.000267,"INCLINATION":47.0029,"RA_OF_ASC_NODE":47.7556,"ARG_OF_PERICENTER":292.9065,"MEAN_ANOMALY":67.1539,"EPHEMERIS_TYPE":0,"CLASSIFICATION_TYPE":"U","NORAD_CAT_ID":41189,"ELEMENT_SET_NO":999,"REV_AT_EPOCH":54358,"BSTAR":0.00028805,"MEAN_MOTION_DOT":1.186e-5,"MEAN_MOTION_DDOT":0},{"OBJECT_NAME":"CHUBUSAT-2","OBJECT_ID":"2016-012B","EPOCH":"2026-03-04T00:49:05.414880","MEAN_MOTION":15.19650305,"ECCENTRICITY":0.0008837,"INCLINATION":30.9975,"RA_OF_ASC_NODE":290.8603,"ARG_OF_PERICENTER":82.1511,"MEAN_ANOMALY":278.0133,"EPHEMERIS_TYPE":0,"CLASSIFICATION_TYPE":"U","NORAD_CAT_ID":41338,"ELEMENT_SET_NO":999,"REV_AT_EPOCH":55240,"BSTAR":0.00042224,"MEAN_MOTION_DOT":9.362e-5,"MEAN_MOTION_DDOT":0},{"OBJECT_NAME":"CHUBUSAT-3","OBJECT_ID":"2016-012C","EPOCH":"2026-03-04T01:42:43.975584","MEAN_MOTION":15.17544435,"ECCENTRICITY":0.0009111,"INCLINATION":31.0046,"RA_OF_ASC_NODE":297.7963,"ARG_OF_PERICENTER":74.1149,"MEAN_ANOMALY":286.0495,"EPHEMERIS_TYPE":0,"CLASSIFICATION_TYPE":"U","NORAD_CAT_ID":41339,"ELEMENT_SET_NO":999,"REV_AT_EPOCH":55221,"BSTAR":0.00036621,"MEAN_MOTION_DOT":7.654e-5,"MEAN_MOTION_DDOT":0},{"OBJECT_NAME":"HORYU-4","OBJECT_ID":"2016-012D","EPOCH":"2026-03-03T11:04:11.167104","MEAN_MOTION":15.61617061,"ECCENTRICITY":0.00020209,"INCLINATION":30.9913,"RA_OF_ASC_NODE":111.5367,"ARG_OF_PERICENTER":83.5639,"MEAN_ANOMALY":276.5244,"EPHEMERIS_TYPE":0,"CLASSIFICATION_TYPE":"U","NORAD_CAT_ID":41340,"ELEMENT_SET_NO":999,"REV_AT_EPOCH":55413,"BSTAR":0.0010416691,"MEAN_MOTION_DOT":0.00094219,"MEAN_MOTION_DDOT":0},{"OBJECT_NAME":"ZIYUAN 3-02 (ZY 3-02)","OBJECT_ID":"2016-033A","EPOCH":"2026-03-04T05:10:43.424832","MEAN_MOTION":15.21460372,"ECCENTRICITY":0.0011276,"INCLINATION":97.3912,"RA_OF_ASC_NODE":140.9696,"ARG_OF_PERICENTER":320.3889,"MEAN_ANOMALY":39.6522,"EPHEMERIS_TYPE":0,"CLASSIFICATION_TYPE":"U","NORAD_CAT_ID":41556,"ELEMENT_SET_NO":999,"REV_AT_EPOCH":54202,"BSTAR":0.00047999,"MEAN_MOTION_DOT":0.00010743,"MEAN_MOTION_DDOT":0},{"OBJECT_NAME":"CARTOSAT-2C","OBJECT_ID":"2016-040A","EPOCH":"2026-03-04T04:54:47.477088","MEAN_MOTION":15.19297385,"ECCENTRICITY":0.0010544,"INCLINATION":97.4621,"RA_OF_ASC_NODE":124.5555,"ARG_OF_PERICENTER":140.386,"MEAN_ANOMALY":219.8147,"EPHEMERIS_TYPE":0,"CLASSIFICATION_TYPE":"U","NORAD_CAT_ID":41599,"ELEMENT_SET_NO":999,"REV_AT_EPOCH":53777,"BSTAR":0.00016812,"MEAN_MOTION_DOT":3.484e-5,"MEAN_MOTION_DDOT":0}]
